KUIPER-00112            
1 65150U 25171U   25282.93423887  .06873716  00000+0  11971+0 0  9991
2 65150  51.8644 118.1388 0061039 297.4175  62.0614 15.43651082 10376
KUIPER-00114            
1 65151U 25171V   25279.86320570  .00015133  00000+0  11612-2 0  9995
2 65151  51.8887 137.0248 0001278 245.1959 114.8880 15.01955753  9847
KUIPER-00115            
1 65152U 25171W   25282.82753478 -.00254842  00000+0 -12393-1 0  9993
2 65152  51.8815 119.6566 0011329 340.8233  19.2318 15.19024129 10348
KUIPER-00116            
1 65153U 25171X   25282.91667823 -.00666794  00000+0 -51172-1 0  9993
2 65153  51.8985 121.5799 0007275 319.6955  18.1842 15.03851874  4630
KUIPER-00118            
1 65154U 25171Y   25282.91667823 -.00486684  00000+0 -45364-1 0  9998
2 65154  51.9223 122.9876 0004358 340.8893 114.2360 14.96116103  5672
KUIPER-00119            
1 65155U 25171Z   25282.86971703  .00023788  00000+0  83574-3 0  9995
2 65155  51.8745 118.4138 0004593 345.6899  14.3953 15.29255791 10366
KUIPER-00120            
1 65762U 25217A   25282.91667823 -.00006718  00000+0 -18750-3 0  9991
2 65762  51.8644  13.0641 0009956 166.2722 280.3872 15.34341294  3218
KUIPER-00132            
1 65763U 25217B   25282.91667823 -.00006536  00000+0 -17718-3 0  9993
2 65763  51.8658  12.9755 0006559 151.7978 339.3770 15.35223965  1301
