<?xml version="1.0" encoding="UTF-8"?>
<ndm xmlns:xsi="http://www.w3.org/2001/XMLSchema-instance" xsi:noNamespaceSchemaLocation="https://sanaregistry.org/r/ndmxml_unqualified/ndmxml-2.0.0-master-2.0.xsd">
<omm id="CCSDS_OMM_VERS" version="2.0">
<header><CREATION_DATE/><ORIGINATOR/></header><body><segment><metadata><OBJECT_NAME>KUIPER-00112</OBJECT_NAME><OBJECT_ID>2025-171U</OBJECT_ID><CENTER_NAME>EARTH</CENTER_NAME><REF_FRAME>TEME</REF_FRAME><TIME_SYSTEM>UTC</TIME_SYSTEM><MEAN_ELEMENT_THEORY>SGP4</MEAN_ELEMENT_THEORY></metadata><data><meanElements><EPOCH>2025-10-09T22:25:18.238368</EPOCH><MEAN_MOTION>15.43651082</MEAN_MOTION><ECCENTRICITY>.0061039</ECCENTRICITY><INCLINATION>51.8644</INCLINATION><RA_OF_ASC_NODE>118.1388</RA_OF_ASC_NODE><ARG_OF_PERICENTER>297.4175</ARG_OF_PERICENTER><MEAN_ANOMALY>62.0614</MEAN_ANOMALY></meanElements><tleParameters><EPHEMERIS_TYPE>0</EPHEMERIS_TYPE><CLASSIFICATION_TYPE>U</CLASSIFICATION_TYPE><NORAD_CAT_ID>65150</NORAD_CAT_ID><ELEMENT_SET_NO>999</ELEMENT_SET_NO><REV_AT_EPOCH>1037</REV_AT_EPOCH><BSTAR>.11971E+0</BSTAR><MEAN_MOTION_DOT>.6873716E-1</MEAN_MOTION_DOT><MEAN_MOTION_DDOT>0</MEAN_MOTION_DDOT></tleParameters></data></segment></body></omm>
<omm id="CCSDS_OMM_VERS" version="2.0">
<header><CREATION_DATE/><ORIGINATOR/></header><body><segment><metadata><OBJECT_NAME>KUIPER-00114</OBJECT_NAME><OBJECT_ID>2025-171V</OBJECT_ID><CENTER_NAME>EARTH</CENTER_NAME><REF_FRAME>TEME</REF_FRAME><TIME_SYSTEM>UTC</TIME_SYSTEM><MEAN_ELEMENT_THEORY>SGP4</MEAN_ELEMENT_THEORY></metadata><data><meanElements><EPOCH>2025-10-06T20:43:00.972480</EPOCH><MEAN_MOTION>15.01955753</MEAN_MOTION><ECCENTRICITY>.00012782</ECCENTRICITY><INCLINATION>51.8887</INCLINATION><RA_OF_ASC_NODE>137.0248</RA_OF_ASC_NODE><ARG_OF_PERICENTER>245.1959</ARG_OF_PERICENTER><MEAN_ANOMALY>114.8880</MEAN_ANOMALY></meanElements><tleParameters><EPHEMERIS_TYPE>0</EPHEMERIS_TYPE><CLASSIFICATION_TYPE>U</CLASSIFICATION_TYPE><NORAD_CAT_ID>65151</NORAD_CAT_ID><ELEMENT_SET_NO>999</ELEMENT_SET_NO><REV_AT_EPOCH>984</REV_AT_EPOCH><BSTAR>.11612064E-2</BSTAR><MEAN_MOTION_DOT>.15133E-3</MEAN_MOTION_DOT><MEAN_MOTION_DDOT>0</MEAN_MOTION_DDOT></tleParameters></data></segment></body></omm>
<omm id="CCSDS_OMM_VERS" version="2.0">
<header><CREATION_DATE/><ORIGINATOR/></header><body><segment><metadata><OBJECT_NAME>KUIPER-00115</OBJECT_NAME><OBJECT_ID>2025-171W</OBJECT_ID><CENTER_NAME>EARTH</CENTER_NAME><REF_FRAME>TEME</REF_FRAME><TIME_SYSTEM>UTC</TIME_SYSTEM><MEAN_ELEMENT_THEORY>SGP4</MEAN_ELEMENT_THEORY></metadata><data><meanElements><EPOCH>2025-10-09T19:51:39.004992</EPOCH><MEAN_MOTION>15.19024129</MEAN_MOTION><ECCENTRICITY>.00113299</ECCENTRICITY><INCLINATION>51.8815</INCLINATION><RA_OF_ASC_NODE>119.6566</RA_OF_ASC_NODE><ARG_OF_PERICENTER>340.8233</ARG_OF_PERICENTER><MEAN_ANOMALY>19.2318</MEAN_ANOMALY></meanElements><tleParameters><EPHEMERIS_TYPE>0</EPHEMERIS_TYPE><CLASSIFICATION_TYPE>U</CLASSIFICATION_TYPE><NORAD_CAT_ID>65152</NORAD_CAT_ID><ELEMENT_SET_NO>999</ELEMENT_SET_NO><REV_AT_EPOCH>1034</REV_AT_EPOCH><BSTAR>-.12393032E-1</BSTAR><MEAN_MOTION_DOT>-.254842E-2</MEAN_MOTION_DOT><MEAN_MOTION_DDOT>0</MEAN_MOTION_DDOT></tleParameters></data></segment></body></omm>
<omm id="CCSDS_OMM_VERS" version="2.0">
<header><CREATION_DATE/><ORIGINATOR/></header><body><segment><metadata><OBJECT_NAME>KUIPER-00116</OBJECT_NAME><OBJECT_ID>2025-171X</OBJECT_ID><CENTER_NAME>EARTH</CENTER_NAME><REF_FRAME>TEME</REF_FRAME><TIME_SYSTEM>UTC</TIME_SYSTEM><MEAN_ELEMENT_THEORY>SGP4</MEAN_ELEMENT_THEORY></metadata><data><meanElements><EPOCH>2025-10-09T22:00:00.999072</EPOCH><MEAN_MOTION>15.03851874</MEAN_MOTION><ECCENTRICITY>.0007275</ECCENTRICITY><INCLINATION>51.8985</INCLINATION><RA_OF_ASC_NODE>121.5799</RA_OF_ASC_NODE><ARG_OF_PERICENTER>319.6955</ARG_OF_PERICENTER><MEAN_ANOMALY>18.1842</MEAN_ANOMALY></meanElements><tleParameters><EPHEMERIS_TYPE>0</EPHEMERIS_TYPE><CLASSIFICATION_TYPE>U</CLASSIFICATION_TYPE><NORAD_CAT_ID>65153</NORAD_CAT_ID><ELEMENT_SET_NO>999</ELEMENT_SET_NO><REV_AT_EPOCH>463</REV_AT_EPOCH><BSTAR>-.51172E-1</BSTAR><MEAN_MOTION_DOT>-.666794E-2</MEAN_MOTION_DOT><MEAN_MOTION_DDOT>0</MEAN_MOTION_DDOT></tleParameters></data></segment></body></omm>
<omm id="CCSDS_OMM_VERS" version="2.0">
<header><CREATION_DATE/><ORIGINATOR/></header><body><segment><metadata><OBJECT_NAME>KUIPER-00118</OBJECT_NAME><OBJECT_ID>2025-171Y</OBJECT_ID><CENTER_NAME>EARTH</CENTER_NAME><REF_FRAME>TEME</REF_FRAME><TIME_SYSTEM>UTC</TIME_SYSTEM><MEAN_ELEMENT_THEORY>SGP4</MEAN_ELEMENT_THEORY></metadata><data><meanElements><EPOCH>2025-10-09T22:00:00.999072</EPOCH><MEAN_MOTION>14.96116103</MEAN_MOTION><ECCENTRICITY>.0004358</ECCENTRICITY><INCLINATION>51.9223</INCLINATION><RA_OF_ASC_NODE>122.9876</RA_OF_ASC_NODE><ARG_OF_PERICENTER>340.8893</ARG_OF_PERICENTER><MEAN_ANOMALY>114.2360</MEAN_ANOMALY></meanElements><tleParameters><EPHEMERIS_TYPE>0</EPHEMERIS_TYPE><CLASSIFICATION_TYPE>U</CLASSIFICATION_TYPE><NORAD_CAT_ID>65154</NORAD_CAT_ID><ELEMENT_SET_NO>999</ELEMENT_SET_NO><REV_AT_EPOCH>567</REV_AT_EPOCH><BSTAR>-.45364E-1</BSTAR><MEAN_MOTION_DOT>-.486684E-2</MEAN_MOTION_DOT><MEAN_MOTION_DDOT>0</MEAN_MOTION_DDOT></tleParameters></data></segment></body></omm>
<omm id="CCSDS_OMM_VERS" version="2.0">
<header><CREATION_DATE/><ORIGINATOR/></header><body><segment><metadata><OBJECT_NAME>KUIPER-00119</OBJECT_NAME><OBJECT_ID>2025-171Z</OBJECT_ID><CENTER_NAME>EARTH</CENTER_NAME><REF_FRAME>TEME</REF_FRAME><TIME_SYSTEM>UTC</TIME_SYSTEM><MEAN_ELEMENT_THEORY>SGP4</MEAN_ELEMENT_THEORY></metadata><data><meanElements><EPOCH>2025-10-09T20:52:23.551392</EPOCH><MEAN_MOTION>15.29255791</MEAN_MOTION><ECCENTRICITY>.0004593</ECCENTRICITY><INCLINATION>51.8745</INCLINATION><RA_OF_ASC_NODE>118.4138</RA_OF_ASC_NODE><ARG_OF_PERICENTER>345.6899</ARG_OF_PERICENTER><MEAN_ANOMALY>14.3953</MEAN_ANOMALY></meanElements><tleParameters><EPHEMERIS_TYPE>0</EPHEMERIS_TYPE><CLASSIFICATION_TYPE>U</CLASSIFICATION_TYPE><NORAD_CAT_ID>65155</NORAD_CAT_ID><ELEMENT_SET_NO>999</ELEMENT_SET_NO><REV_AT_EPOCH>1036</REV_AT_EPOCH><BSTAR>.83574E-3</BSTAR><MEAN_MOTION_DOT>.23788E-3</MEAN_MOTION_DOT><MEAN_MOTION_DDOT>0</MEAN_MOTION_DDOT></tleParameters></data></segment></body></omm>
<omm id="CCSDS_OMM_VERS" version="2.0">
<header><CREATION_DATE/><ORIGINATOR/></header><body><segment><metadata><OBJECT_NAME>KUIPER-00120</OBJECT_NAME><OBJECT_ID>2025-217A</OBJECT_ID><CENTER_NAME>EARTH</CENTER_NAME><REF_FRAME>TEME</REF_FRAME><TIME_SYSTEM>UTC</TIME_SYSTEM><MEAN_ELEMENT_THEORY>SGP4</MEAN_ELEMENT_THEORY></metadata><data><meanElements><EPOCH>2025-10-09T22:00:00.999072</EPOCH><MEAN_MOTION>15.34341294</MEAN_MOTION><ECCENTRICITY>.0009956</ECCENTRICITY><INCLINATION>51.8644</INCLINATION><RA_OF_ASC_NODE>13.0641</RA_OF_ASC_NODE><ARG_OF_PERICENTER>166.2722</ARG_OF_PERICENTER><MEAN_ANOMALY>280.3872</MEAN_ANOMALY></meanElements><tleParameters><EPHEMERIS_TYPE>0</EPHEMERIS_TYPE><CLASSIFICATION_TYPE>U</CLASSIFICATION_TYPE><NORAD_CAT_ID>65762</NORAD_CAT_ID><ELEMENT_SET_NO>999</ELEMENT_SET_NO><REV_AT_EPOCH>321</REV_AT_EPOCH><BSTAR>-.1875E-3</BSTAR><MEAN_MOTION_DOT>-.6718E-4</MEAN_MOTION_DOT><MEAN_MOTION_DDOT>0</MEAN_MOTION_DDOT></tleParameters></data></segment></body></omm>
<omm id="CCSDS_OMM_VERS" version="2.0">
<header><CREATION_DATE/><ORIGINATOR/></header><body><segment><metadata><OBJECT_NAME>KUIPER-00132</OBJECT_NAME><OBJECT_ID>2025-217B</OBJECT_ID><CENTER_NAME>EARTH</CENTER_NAME><REF_FRAME>TEME</REF_FRAME><TIME_SYSTEM>UTC</TIME_SYSTEM><MEAN_ELEMENT_THEORY>SGP4</MEAN_ELEMENT_THEORY></metadata><data><meanElements><EPOCH>2025-10-09T22:00:00.999072</EPOCH><MEAN_MOTION>15.35223965</MEAN_MOTION><ECCENTRICITY>.0006559</ECCENTRICITY><INCLINATION>51.8658</INCLINATION><RA_OF_ASC_NODE>12.9755</RA_OF_ASC_NODE><ARG_OF_PERICENTER>151.7978</ARG_OF_PERICENTER><MEAN_ANOMALY>339.3770</MEAN_ANOMALY></meanElements><tleParameters><EPHEMERIS_TYPE>0</EPHEMERIS_TYPE><CLASSIFICATION_TYPE>U</CLASSIFICATION_TYPE><NORAD_CAT_ID>65763</NORAD_CAT_ID><ELEMENT_SET_NO>999</ELEMENT_SET_NO><REV_AT_EPOCH>130</REV_AT_EPOCH><BSTAR>-.17718E-3</BSTAR><MEAN_MOTION_DOT>-.6536E-4</MEAN_MOTION_DOT><MEAN_MOTION_DDOT>0</MEAN_MOTION_DDOT></tleParameters></data></segment></body></omm>

</ndm>
